STARLINK-2115
1 27394C 21005AX  21325.12484267  .00008743  00000-0  58583-3 0  3259
2 27394  53.0523 232.6761 0001977  65.5743  78.2262 15.06384939    14
